{"type": "FeatureCollection", "features": [ {"type": "Feature", "properties": {"norad_id": 37216, "name": "COSMO-SKYMED 4", "group": "resource", "lat": -75.67721643387094, "lon": -162.7811794839593, "alt_km": 630.7317370745841, "timestamp": "2025-12-08T23:34:03.626327+00:00", "meta": {"OBJECT_NAME": "COSMO-SKYMED 4", "OBJECT_ID": "2010-060A", "EPOCH": "2025-12-08T14:11:51.898560", "MEAN_MOTION": 14.82161711, "ECCENTRICITY": 0.00013659, "INCLINATION": 97.8813, "RA_OF_ASC_NODE": 163.9775, "ARG_OF_PERICENTER": 83.0422, "MEAN_ANOMALY": 277.0946, "EPHEMERIS_TYPE": 0, "CLASSIFICATION_TYPE": "U", "NORAD_CAT_ID": 37216, "ELEMENT_SET_NO": 999, "REV_AT_EPOCH": 81633, "BSTAR": 0.00014746943, "MEAN_MOTION_DOT": 1.122e-05, "MEAN_MOTION_DDOT": 0}, "tle": {"line1": "1 37216U 10060A   25342.59157290  .00001122  00000+0  14747-3 0  9991", "line2": "2 37216  97.8813 163.9775 0001365  83.0422 277.0946 14.82161711816337"}}, "geometry": {"type": "Point", "coordinates": [-162.7811794839593, -75.67721643387094]}}, {"type": "Feature", "properties": {"norad_id": 37387, "name": "RESOURCESAT-2", "group": "resource", "lat": -15.075383389419256, "lon": 48.93868346012165, "alt_km": 822.785209189311, "timestamp": "2025-12-08T23:34:03.626338+00:00", "meta": {"OBJECT_NAME": "RESOURCESAT-2", "OBJECT_ID": "2011-015A", "EPOCH": "2025-12-08T15:11:35.725632", "MEAN_MOTION": 14.21595005, "ECCENTRICITY": 0.00066148, "INCLINATION": 98.7882, "RA_OF_ASC_NODE": 46.2032, "ARG_OF_PERICENTER": 53.2812, "MEAN_ANOMALY": 306.8972, "EPHEMERIS_TYPE": 0, "CLASSIFICATION_TYPE": "U", "NORAD_CAT_ID": 37387, "ELEMENT_SET_NO": 999, "REV_AT_EPOCH": 75910, "BSTAR": 0.00016614446, "MEAN_MOTION_DOT": 3.2e-06, "MEAN_MOTION_DDOT": 0}, "tle": {"line1": "1 37387U 11015A   25342.63305238  .00000320  00000+0  16614-3 0  9997", "line2": "2 37387  98.7882  46.2032 0006614  53.2812 306.8972 14.21595005759106"}}, "geometry": {"type": "Point", "coordinates": [48.93868346012165, -15.075383389419256]}}, {"type": "Feature", "properties": {"norad_id": 37781, "name": "HAIYANG-2A", "group": "resource", "lat": -68.36130192458454, "lon": 139.4709606875595, "alt_km": 976.3916212956501, "timestamp": "2025-12-08T23:34:03.626349+00:00", "meta": {"OBJECT_NAME": "HAIYANG-2A", "OBJECT_ID": "2011-043A", "EPOCH": "2025-12-08T15:23:28.153248", "MEAN_MOTION": 13.78834767, "ECCENTRICITY": 0.00016678, "INCLINATION": 99.3378, "RA_OF_ASC_NODE": 343.639, "ARG_OF_PERICENTER": 89.8775, "MEAN_ANOMALY": 270.2568, "EPHEMERIS_TYPE": 0, "CLASSIFICATION_TYPE": "U", "NORAD_CAT_ID": 37781, "ELEMENT_SET_NO": 999, "REV_AT_EPOCH": 72042, "BSTAR": 4.7755912e-05, "MEAN_MOTION_DOT": 5e-08, "MEAN_MOTION_DDOT": 0}, "tle": {"line1": "1 37781U 11043A   25342.64129807  .00000005  00000+0  47756-4 0  9995", "line2": "2 37781  99.3378 343.6390 0001667  89.8775 270.2568 13.78834767720428"}}, "geometry": {"type": "Point", "coordinates": [139.4709606875595, -68.36130192458454]}}, {"type": "Feature", "properties": {"norad_id": 37791, "name": "RASAT", "group": "resource", "lat": -63.03052324698941, "lon": -123.88503050344816, "alt_km": 690.0568987447268, "timestamp": "2025-12-08T23:34:03.626360+00:00", "meta": {"OBJECT_NAME": "RASAT", "OBJECT_ID": "2011-044D", "EPOCH": "2025-12-08T14:54:09.304128", "MEAN_MOTION": 14.67901647, "ECCENTRICITY": 0.00219188, "INCLINATION": 98.0655, "RA_OF_ASC_NODE": 71.94, "ARG_OF_PERICENTER": 77.5211, "MEAN_ANOMALY": 59.7665, "EPHEMERIS_TYPE": 0, "CLASSIFICATION_TYPE": "U", "NORAD_CAT_ID": 37791, "ELEMENT_SET_NO": 999, "REV_AT_EPOCH": 76522, "BSTAR": 0.00023291312, "MEAN_MOTION_DOT": 1.288e-05, "MEAN_MOTION_DDOT": 0}, "tle": {"line1": "1 37791U 11044D   25342.62094102  .00001288  00000+0  23291-3 0  9995", "line2": "2 37791  98.0655  71.9400 0021918  77.5211  59.7665 14.67901647765222"}}, "geometry": {"type": "Point", "coordinates": [-123.88503050344816, -63.03052324698941]}}, {"type": "Feature", "properties": {"norad_id": 37841, "name": "SRMSAT", "group": "resource", "lat": 6.192823789916548, "lon": 148.08224485036834, "alt_km": 853.4728300893967, "timestamp": "2025-12-08T23:34:03.626378+00:00", "meta": {"OBJECT_NAME": "SRMSAT", "OBJECT_ID": "2011-058D", "EPOCH": "2025-12-08T11:47:57.847200", "MEAN_MOTION": 14.11509433, "ECCENTRICITY": 0.00117004, "INCLINATION": 19.9701, "RA_OF_ASC_NODE": 133.6623, "ARG_OF_PERICENTER": 266.3108, "MEAN_ANOMALY": 134.9771, "EPHEMERIS_TYPE": 0, "CLASSIFICATION_TYPE": "U", "NORAD_CAT_ID": 37841, "ELEMENT_SET_NO": 999, "REV_AT_EPOCH": 73084, "BSTAR": 0.00016348202, "MEAN_MOTION_DOT": 5.66e-06, "MEAN_MOTION_DDOT": 0}, "tle": {"line1": "1 37841U 11058D   25342.49164175  .00000566  00000+0  16348-3 0  9992", "line2": "2 37841  19.9701 133.6623 0011700 266.3108 134.9771 14.11509433730846"}}, "geometry": {"type": "Point", "coordinates": [148.08224485036834, 6.192823789916548]}}, {"type": "Feature", "properties": {"norad_id": 38012, "name": "PLEIADES 1A", "group": "resource", "lat": 14.285267650629413, "lon": -122.09178075065324, "alt_km": 698.7535914821965, "timestamp": "2025-12-08T23:34:03.626389+00:00", "meta": {"OBJECT_NAME": "PLEIADES 1A", "OBJECT_ID": "2011-076F", "EPOCH": "2025-12-08T15:12:29.092320", "MEAN_MOTION": 14.58556142, "ECCENTRICITY": 0.00013231, "INCLINATION": 98.1829, "RA_OF_ASC_NODE": 55.4656, "ARG_OF_PERICENTER": 78.5366, "MEAN_ANOMALY": 59.0429, "EPHEMERIS_TYPE": 0, "CLASSIFICATION_TYPE": "U", "NORAD_CAT_ID": 38012, "ELEMENT_SET_NO": 999, "REV_AT_EPOCH": 74421, "BSTAR": 0.00019782731, "MEAN_MOTION_DOT": 8.74e-06, "MEAN_MOTION_DDOT": 0}, "tle": {"line1": "1 38012U 11076F   25342.63367005  .00000874  00000+0  19783-3 0  9994", "line2": "2 38012  98.1829  55.4656 0001323  78.5366  59.0429 14.58556142744216"}}, "geometry": {"type": "Point", "coordinates": [-122.09178075065324, 14.285267650629413]}}, {"type": "Feature", "properties": {"norad_id": 38038, "name": "ZIYUAN 1-02C (ZY 1-02C)", "group": "resource", "lat": -9.281619702450552, "lon": 50.45432824896645, "alt_km": 773.8315158049627, "timestamp": "2025-12-08T23:34:03.626400+00:00", "meta": {"OBJECT_NAME": "ZIYUAN 1-02C (ZY 1-02C)", "OBJECT_ID": "2011-079A", "EPOCH": "2025-12-08T15:48:49.672800", "MEAN_MOTION": 14.38005941, "ECCENTRICITY": 0.00070359, "INCLINATION": 98.434, "RA_OF_ASC_NODE": 48.7478, "ARG_OF_PERICENTER": 149.8532, "MEAN_ANOMALY": 329.3594, "EPHEMERIS_TYPE": 0, "CLASSIFICATION_TYPE": "U", "NORAD_CAT_ID": 38038, "ELEMENT_SET_NO": 999, "REV_AT_EPOCH": 73182, "BSTAR": 0.0003459589, "MEAN_MOTION_DOT": 1.004e-05, "MEAN_MOTION_DDOT": 0}, "tle": {"line1": "1 38038U 11079A   25342.65890825  .00001004  00000+0  34596-3 0  9993", "line2": "2 38038  98.4340  48.7478 0007035 149.8532 329.3594 14.38005941731828"}}, "geometry": {"type": "Point", "coordinates": [50.45432824896645, -9.281619702450552]}}, {"type": "Feature", "properties": {"norad_id": 38046, "name": "ZIYUAN 3-1 (ZY 3-1)", "group": "resource", "lat": -8.036659949627015, "lon": -131.70543022167658, "alt_km": 370.58230149529663, "timestamp": "2025-12-08T23:34:03.626410+00:00", "meta": {"OBJECT_NAME": "ZIYUAN 3-1 (ZY 3-1)", "OBJECT_ID": "2012-001A", "EPOCH": "2025-12-08T15:06:33.344640", "MEAN_MOTION": 15.67778864, "ECCENTRICITY": 0.00019873, "INCLINATION": 97.1756, "RA_OF_ASC_NODE": 48.9535, "ARG_OF_PERICENTER": 10.0118, "MEAN_ANOMALY": 350.1183, "EPHEMERIS_TYPE": 0, "CLASSIFICATION_TYPE": "U", "NORAD_CAT_ID": 38046, "ELEMENT_SET_NO": 999, "REV_AT_EPOCH": 77432, "BSTAR": 0.00076835154, "MEAN_MOTION_DOT": 0.00084787, "MEAN_MOTION_DDOT": 0}, "tle": {"line1": "1 38046U 12001A   25342.62955260  .00084787  00000+0  76835-3 0  9991", "line2": "2 38046  97.1756  48.9535 0001987  10.0118 350.1183 15.67778864774321"}}, "geometry": {"type": "Point", "coordinates": [-131.70543022167658, -8.036659949627015]}}, {"type": "Feature", "properties": {"norad_id": 38338, "name": "ARIRANG-3 (KOMPSAT-3)", "group": "resource", "lat": 19.944477329381538, "lon": -65.50518363245929, "alt_km": 684.255577629152, "timestamp": "2025-12-08T23:34:03.626421+00:00", "meta": {"OBJECT_NAME": "ARIRANG-3 (KOMPSAT-3)", "OBJECT_ID": "2012-025B", "EPOCH": "2025-12-08T15:15:40.843296", "MEAN_MOTION": 14.61705038, "ECCENTRICITY": 0.00056488, "INCLINATION": 98.3318, "RA_OF_ASC_NODE": 297.1945, "ARG_OF_PERICENTER": 352.1569, "MEAN_ANOMALY": 7.9542, "EPHEMERIS_TYPE": 0, "CLASSIFICATION_TYPE": "U", "NORAD_CAT_ID": 38338, "ELEMENT_SET_NO": 999, "REV_AT_EPOCH": 72350, "BSTAR": 0.00025520898, "MEAN_MOTION_DOT": 1.223e-05, "MEAN_MOTION_DDOT": 0}, "tle": {"line1": "1 38338U 12025B   25342.63588939  .00001223  00000+0  25521-3 0  9997", "line2": "2 38338  98.3318 297.1945 0005648 352.1569   7.9542 14.61705038723509"}}, "geometry": {"type": "Point", "coordinates": [-65.50518363245929, 19.944477329381538]}}, {"type": "Feature", "properties": {"norad_id": 38709, "name": "EXACTVIEW-1 (ADS-1B)", "group": "resource", "lat": 24.490169082856898, "lon": -84.58398647384831, "alt_km": 814.8712684442571, "timestamp": "2025-12-08T23:34:03.626431+00:00", "meta": {"OBJECT_NAME": "EXACTVIEW-1 (ADS-1B)", "OBJECT_ID": "2012-039C", "EPOCH": "2025-12-08T14:24:58.472064", "MEAN_MOTION": 14.24905658, "ECCENTRICITY": 0.0010891, "INCLINATION": 98.9636, "RA_OF_ASC_NODE": 90.9039, "ARG_OF_PERICENTER": 6.2058, "MEAN_ANOMALY": 353.9253, "EPHEMERIS_TYPE": 0, "CLASSIFICATION_TYPE": "U", "NORAD_CAT_ID": 38709, "ELEMENT_SET_NO": 999, "REV_AT_EPOCH": 69556, "BSTAR": 0.00017405758, "MEAN_MOTION_DOT": 3.6e-06, "MEAN_MOTION_DDOT": 0}, "tle": {"line1": "1 38709U 12039C   25342.60067676  .00000360  00000+0  17406-3 0  9995", "line2": "2 38709  98.9636  90.9039 0010891   6.2058 353.9253 14.24905658695565"}}, "geometry": {"type": "Point", "coordinates": [-84.58398647384831, 24.490169082856898]}}]}